2026-106A               
1 69097U 26106A   26164.90204262  .00007361  00000+0  44143-3 0  9995
2 69097  97.5102 247.0452 0014666 172.2888 187.8571 15.11159702  4485
2026-106B               
1 69098U 26106B   26164.91651150  .00004879  00000+0  30628-3 0  9993
2 69098  97.5080 247.0198 0015086 168.2206 191.9379 15.09653618  4488
2026-106C               
1 69099U 26106C   26164.90125124  .00007588  00000+0  45439-3 0  9996
2 69099  97.5106 247.0476 0014444 172.9933 187.1502 15.11202466  4482
2026-106D               
1 69100U 26106D   26164.89888644  .00001620  00000+0  99934-4 0  9991
2 69100  97.5075 247.0420 0014150 175.2584 184.8783 15.11266856  4489
2026-106E               
1 69101U 26106E   26164.89364855  .00008102  00000+0  48104-3 0  9999
2 69101  97.5085 247.0493 0016614 176.2856 183.8500 15.11462836  4483
DRAGON CRS-34           
1 69103U 26107A   26164.83523428  .00008738  00000+0  16534-3 0  9996
2 69103  51.6333 316.6832 0004955 182.4672 177.6293 15.49214103570764
QIANFAN-145             
1 69104U 26108A   26164.82363916 -.02073940  00000+0 -13825+1 0  9999
2 69104  89.0101  22.5972 0014257 132.4130 227.8260 14.05311278  3867
QIANFAN-146             
1 69105U 26108B   26164.86735897 -.01695440  00000+0 -10278+1 0  9998
2 69105  89.0108  22.5681 0018615 104.6869 255.6381 14.10364472  3889
QIANFAN-147             
1 69106U 26108C   26164.87423806 -.01960672  00000+0 -12706+1 0  9994
2 69106  89.0102  22.5866 0015221 116.8314 243.4427 14.06641037  3874
QIANFAN-148             
1 69107U 26108D   26164.86857407 -.01910359  00000+0 -12659+1 0  9996
2 69107  89.0102  22.5860 0018573 134.0513 226.2203 14.05274529  3873
QIANFAN-149             
1 69108U 26108E   26164.86724355  .00000068  00000+0  31289-4 0  9990
2 69108  89.0114  22.5865 0016523 122.6981 237.5799 14.09076101  3872
QIANFAN-150             
1 69109U 26108F   26164.85287997 -.02078177  00000+0 -13293+1 0  9997
2 69109  89.0107  22.5843 0016098 112.1765 248.1129 14.07598512  3870
QIANFAN-151             
1 69110U 26108G   26164.84741773 -.01930369  00000+0 -12621+1 0  9998
2 69110  89.0114  22.5830 0016149 128.9940 231.2683 14.06080708  3873
QIANFAN-152             
1 69111U 26108H   26164.83687259 -.01893806  00000+0 -12009+1 0  9990
2 69111  89.0106  22.5818 0017010 119.1577 241.1311 14.07695038  3874
QIANFAN-153             
1 69112U 26108J   26164.83202826 -.01813846  00000+0 -11764+1 0  9997
2 69112  89.0102  22.5801 0016263 122.6383 237.6371 14.06943309  3878
QIANFAN-154             
1 69113U 26108K   26164.82503329 -.02090587  00000+0 -13179+1 0  9991
2 69113  89.0112  22.5808 0020004 110.5588 249.7744 14.08392809  3871
QIANFAN-155             
1 69114U 26108L   26164.83018747 -.02073335  00000+0 -13260+1 0  9991
2 69114  89.0103  22.5813 0019322 116.5625 243.7541 14.07567838  3871
QIANFAN-156             
1 69115U 26108M   26163.96413537 -.01951408  00000+0 -11885+1 0  9997
2 69115  89.0116  22.6746 0021312 111.6361 248.7096 14.09991528  3753
QIANFAN-157             
1 69116U 26108N   26164.85246926 -.01902602  00000+0 -11421+1 0  9991
2 69116  89.0107  22.5657 0021894 117.5197 242.8216 14.10677837  3880
QIANFAN-158             
1 69117U 26108P   26164.87418834 -.01841769  00000+0 -11239+1 0  9996
2 69117  89.0110  22.5691 0018921 110.1512 250.1710 14.09686939  3882
QIANFAN-159             
1 69118U 26108Q   26164.86726216 -.02009509  00000+0 -12085+1 0  9991
2 69118  89.0104  22.5675 0016714 100.0534 260.2538 14.10847637  3884
QIANFAN-160             
1 69119U 26108R   26164.86371994 -.01916835  00000+0 -11751+1 0  9998
2 69119  89.0109  22.5680 0017565 106.3316 253.9802 14.09596494  3881
QIANFAN-161             
1 69120U 26108S   26164.92622340  .00000083  00000+0  34765-4 0  9991
2 69120  89.0115  22.5587 0015539 122.9513 237.3171 14.16181151  3892
QIANFAN-162             
1 69121U 26108T   26164.85099930 -.01773185  00000+0 -10533+1 0  9993
2 69121  89.0108  22.5660 0021484 121.5380 238.7908 14.11632797  3884
SMILE                   
1 69123U 26109A   26144.65318427 -.00001976  00000+0 -42379-3 0  9994
2 69123  70.0007 229.2745 0009123 259.5159 100.4951 14.57062785   802
STARLINK-37726          
1 69124U 26110A   26164.93899429  .00047946  00000+0  87719-3 0  9998
2 69124  97.2837   1.1274 0001352  85.0024 275.1381 15.49211309  5091
STARLINK-37722          
1 69125U 26110B   26164.80639723  .00043499  00000+0  79665-3 0  9994
2 69125  97.2831   1.1547 0001428  82.7645 277.3768 15.49203423  5086
STARLINK-37715          
1 69126U 26110C   26164.91668981  .00098374  00000+0  30169-2 0  9992
2 69126  97.2843   1.3254 0001934  94.4666 298.3581 15.33371675  5121
